{"type": "FeatureCollection", "features": [ {"type": "Feature", "properties": {"norad_id": 67021, "name": "STARLINK-36184", "group": "last-30-days", "lat": 33.26960412874091, "lon": -64.04794448947158, "alt_km": 356.6253948832564, "timestamp": "2025-12-27T03:58:42.934268+00:00", "meta": {"OBJECT_NAME": "STARLINK-36184", "OBJECT_ID": "2025-293U", "EPOCH": "2025-12-26T20:00:01.999008", "MEAN_MOTION": 15.71672038, "ECCENTRICITY": 0.0003673, "INCLINATION": 69.9966, "RA_OF_ASC_NODE": 283.0588, "ARG_OF_PERICENTER": 261.6907, "MEAN_ANOMALY": 54.577, "EPHEMERIS_TYPE": 0, "CLASSIFICATION_TYPE": "U", "NORAD_CAT_ID": 67021, "ELEMENT_SET_NO": 999, "REV_AT_EPOCH": 248, "BSTAR": -0.014678, "MEAN_MOTION_DOT": -0.01680421, "MEAN_MOTION_DDOT": 0}, "tle": {"line1": "1 67021U 25293U   25360.83335647 -.01680421  00000+0 -14678-1 0  9992", "line2": "2 67021  69.9966 283.0588 0003673 261.6907  54.5770 15.71672038  2489"}}, "geometry": {"type": "Point", "coordinates": [-64.04794448947158, 33.26960412874091]}}, {"type": "Feature", "properties": {"norad_id": 67022, "name": "STARLINK-36209", "group": "last-30-days", "lat": 35.57627330317845, "lon": -62.774956980315885, "alt_km": 356.45239558127287, "timestamp": "2025-12-27T03:58:42.934277+00:00", "meta": {"OBJECT_NAME": "STARLINK-36209", "OBJECT_ID": "2025-293V", "EPOCH": "2025-12-26T20:00:01.999008", "MEAN_MOTION": 15.71635124, "ECCENTRICITY": 0.0003729, "INCLINATION": 69.9965, "RA_OF_ASC_NODE": 283.0558, "ARG_OF_PERICENTER": 261.7932, "MEAN_ANOMALY": 57.0504, "EPHEMERIS_TYPE": 0, "CLASSIFICATION_TYPE": "U", "NORAD_CAT_ID": 67022, "ELEMENT_SET_NO": 999, "REV_AT_EPOCH": 248, "BSTAR": -0.014679, "MEAN_MOTION_DOT": -0.01678211, "MEAN_MOTION_DDOT": 0}, "tle": {"line1": "1 67022U 25293V   25360.83335647 -.01678211  00000+0 -14679-1 0  9998", "line2": "2 67022  69.9965 283.0558 0003729 261.7932  57.0504 15.71635124  2485"}}, "geometry": {"type": "Point", "coordinates": [-62.774956980315885, 35.57627330317845]}}, {"type": "Feature", "properties": {"norad_id": 67023, "name": "STARLINK-36191", "group": "last-30-days", "lat": 37.62523814162988, "lon": -61.57483112043158, "alt_km": 356.4846352958739, "timestamp": "2025-12-27T03:58:42.934288+00:00", "meta": {"OBJECT_NAME": "STARLINK-36191", "OBJECT_ID": "2025-293W", "EPOCH": "2025-12-26T20:00:01.999008", "MEAN_MOTION": 15.7156341, "ECCENTRICITY": 0.0004023, "INCLINATION": 69.9965, "RA_OF_ASC_NODE": 283.0524, "ARG_OF_PERICENTER": 259.6805, "MEAN_ANOMALY": 61.4829, "EPHEMERIS_TYPE": 0, "CLASSIFICATION_TYPE": "U", "NORAD_CAT_ID": 67023, "ELEMENT_SET_NO": 999, "REV_AT_EPOCH": 237, "BSTAR": -0.014148, "MEAN_MOTION_DOT": -0.0162011, "MEAN_MOTION_DDOT": 0}, "tle": {"line1": "1 67023U 25293W   25360.83335647 -.01620110  00000+0 -14148-1 0  9995", "line2": "2 67023  69.9965 283.0524 0004023 259.6805  61.4829 15.71563410  2377"}}, "geometry": {"type": "Point", "coordinates": [-61.57483112043158, 37.62523814162988]}}, {"type": "Feature", "properties": {"norad_id": 67024, "name": "STARLINK-36192", "group": "last-30-days", "lat": 39.80900900818776, "lon": -60.20813299367812, "alt_km": 355.88218934037286, "timestamp": "2025-12-27T03:58:42.934298+00:00", "meta": {"OBJECT_NAME": "STARLINK-36192", "OBJECT_ID": "2025-293X", "EPOCH": "2025-12-26T14:00:04.000032", "MEAN_MOTION": 15.72434304, "ECCENTRICITY": 0.0003784, "INCLINATION": 69.9959, "RA_OF_ASC_NODE": 283.7562, "ARG_OF_PERICENTER": 263.438, "MEAN_ANOMALY": 85.931, "EPHEMERIS_TYPE": 0, "CLASSIFICATION_TYPE": "U", "NORAD_CAT_ID": 67024, "ELEMENT_SET_NO": 999, "REV_AT_EPOCH": 244, "BSTAR": -0.01362774, "MEAN_MOTION_DOT": -0.01619409, "MEAN_MOTION_DDOT": 0}, "tle": {"line1": "1 67024U 25293X   25360.58337963 -.01619409  00000+0 -13628-1 0  9992", "line2": "2 67024  69.9959 283.7562 0003784 263.4380  85.9310 15.72434304  2448"}}, "geometry": {"type": "Point", "coordinates": [-60.20813299367812, 39.80900900818776]}}, {"type": "Feature", "properties": {"norad_id": 67025, "name": "STARLINK-36178", "group": "last-30-days", "lat": 41.7352016169587, "lon": -58.92387784088584, "alt_km": 355.82717844099716, "timestamp": "2025-12-27T03:58:42.934307+00:00", "meta": {"OBJECT_NAME": "STARLINK-36178", "OBJECT_ID": "2025-293Y", "EPOCH": "2025-12-26T20:00:01.999008", "MEAN_MOTION": 15.71577231, "ECCENTRICITY": 0.0003739, "INCLINATION": 69.9969, "RA_OF_ASC_NODE": 283.0475, "ARG_OF_PERICENTER": 262.3484, "MEAN_ANOMALY": 63.4147, "EPHEMERIS_TYPE": 0, "CLASSIFICATION_TYPE": "U", "NORAD_CAT_ID": 67025, "ELEMENT_SET_NO": 999, "REV_AT_EPOCH": 248, "BSTAR": -0.014749, "MEAN_MOTION_DOT": -0.01681669, "MEAN_MOTION_DDOT": 0}, "tle": {"line1": "1 67025U 25293Y   25360.83335647 -.01681669  00000+0 -14749-1 0  9990", "line2": "2 67025  69.9969 283.0475 0003739 262.3484  63.4147 15.71577231  2488"}}, "geometry": {"type": "Point", "coordinates": [-58.92387784088584, 41.7352016169587]}}, {"type": "Feature", "properties": {"norad_id": 67026, "name": "STARLINK-36176", "group": "last-30-days", "lat": 45.750396001548815, "lon": -55.9325818314201, "alt_km": 355.39116667659164, "timestamp": "2025-12-27T03:58:42.934316+00:00", "meta": {"OBJECT_NAME": "STARLINK-36176", "OBJECT_ID": "2025-293Z", "EPOCH": "2025-12-26T20:00:01.999008", "MEAN_MOTION": 15.7153336, "ECCENTRICITY": 0.0003704, "INCLINATION": 69.9966, "RA_OF_ASC_NODE": 283.0422, "ARG_OF_PERICENTER": 263.6012, "MEAN_ANOMALY": 66.768, "EPHEMERIS_TYPE": 0, "CLASSIFICATION_TYPE": "U", "NORAD_CAT_ID": 67026, "ELEMENT_SET_NO": 999, "REV_AT_EPOCH": 248, "BSTAR": -0.014729, "MEAN_MOTION_DOT": -0.01676877, "MEAN_MOTION_DDOT": 0}, "tle": {"line1": "1 67026U 25293Z   25360.83335647 -.01676877  00000+0 -14729-1 0  9994", "line2": "2 67026  69.9966 283.0422 0003704 263.6012  66.7680 15.71533360  2484"}}, "geometry": {"type": "Point", "coordinates": [-55.9325818314201, 45.750396001548815]}}, {"type": "Feature", "properties": {"norad_id": 67027, "name": "STARLINK-36171", "group": "last-30-days", "lat": 43.9133127932387, "lon": -57.358569260797275, "alt_km": 355.69950784543016, "timestamp": "2025-12-27T03:58:42.934325+00:00", "meta": {"OBJECT_NAME": "STARLINK-36171", "OBJECT_ID": "2025-293AA", "EPOCH": "2025-12-26T20:00:01.999008", "MEAN_MOTION": 15.71553845, "ECCENTRICITY": 0.0003754, "INCLINATION": 69.9966, "RA_OF_ASC_NODE": 283.0445, "ARG_OF_PERICENTER": 259.9886, "MEAN_ANOMALY": 68.2677, "EPHEMERIS_TYPE": 0, "CLASSIFICATION_TYPE": "U", "NORAD_CAT_ID": 67027, "ELEMENT_SET_NO": 999, "REV_AT_EPOCH": 248, "BSTAR": -0.014824, "MEAN_MOTION_DOT": -0.01687776, "MEAN_MOTION_DDOT": 0}, "tle": {"line1": "1 67027U 25293AA  25360.83335647 -.01687776  00000+0 -14824-1 0  9991", "line2": "2 67027  69.9966 283.0445 0003754 259.9886  68.2677 15.71553845  2485"}}, "geometry": {"type": "Point", "coordinates": [-57.358569260797275, 43.9133127932387]}}, {"type": "Feature", "properties": {"norad_id": 67028, "name": "STARLINK-36132", "group": "last-30-days", "lat": 49.69387610968106, "lon": -52.46507933217603, "alt_km": 355.1099741767921, "timestamp": "2025-12-27T03:58:42.934336+00:00", "meta": {"OBJECT_NAME": "STARLINK-36132", "OBJECT_ID": "2025-293AB", "EPOCH": "2025-12-26T20:00:01.999008", "MEAN_MOTION": 15.7149409, "ECCENTRICITY": 0.0003824, "INCLINATION": 69.997, "RA_OF_ASC_NODE": 283.0366, "ARG_OF_PERICENTER": 263.6917, "MEAN_ANOMALY": 71.3038, "EPHEMERIS_TYPE": 0, "CLASSIFICATION_TYPE": "U", "NORAD_CAT_ID": 67028, "ELEMENT_SET_NO": 999, "REV_AT_EPOCH": 248, "BSTAR": -0.014795, "MEAN_MOTION_DOT": -0.016811, "MEAN_MOTION_DDOT": 0}, "tle": {"line1": "1 67028U 25293AB  25360.83335647 -.01681100  00000+0 -14795-1 0  9994", "line2": "2 67028  69.9970 283.0366 0003824 263.6917  71.3038 15.71494090  2480"}}, "geometry": {"type": "Point", "coordinates": [-52.46507933217603, 49.69387610968106]}}, {"type": "Feature", "properties": {"norad_id": 67029, "name": "STARLINK-36190", "group": "last-30-days", "lat": 47.61648923420513, "lon": -54.368660612691215, "alt_km": 355.2772705535799, "timestamp": "2025-12-27T03:58:42.934346+00:00", "meta": {"OBJECT_NAME": "STARLINK-36190", "OBJECT_ID": "2025-293AC", "EPOCH": "2025-12-26T20:00:01.999008", "MEAN_MOTION": 15.71522144, "ECCENTRICITY": 0.0003774, "INCLINATION": 69.997, "RA_OF_ASC_NODE": 283.0397, "ARG_OF_PERICENTER": 262.2496, "MEAN_ANOMALY": 70.2866, "EPHEMERIS_TYPE": 0, "CLASSIFICATION_TYPE": "U", "NORAD_CAT_ID": 67029, "ELEMENT_SET_NO": 999, "REV_AT_EPOCH": 248, "BSTAR": -0.014774, "MEAN_MOTION_DOT": -0.01680698, "MEAN_MOTION_DDOT": 0}, "tle": {"line1": "1 67029U 25293AC  25360.83335647 -.01680698  00000+0 -14774-1 0  9993", "line2": "2 67029  69.9970 283.0397 0003774 262.2496  70.2866 15.71522144  2485"}}, "geometry": {"type": "Point", "coordinates": [-54.368660612691215, 47.61648923420513]}}, {"type": "Feature", "properties": {"norad_id": 67030, "name": "STARLINK-36138", "group": "last-30-days", "lat": -37.55688067600976, "lon": 38.61814715570118, "alt_km": 380.947683813165, "timestamp": "2025-12-27T03:58:42.934355+00:00", "meta": {"OBJECT_NAME": "STARLINK-36138", "OBJECT_ID": "2025-294A", "EPOCH": "2025-12-26T20:00:01.999008", "MEAN_MOTION": 15.64438374, "ECCENTRICITY": 0.0001284, "INCLINATION": 42.9995, "RA_OF_ASC_NODE": 96.2065, "ARG_OF_PERICENTER": 277.6753, "MEAN_ANOMALY": 305.3805, "EPHEMERIS_TYPE": 0, "CLASSIFICATION_TYPE": "U", "NORAD_CAT_ID": 67030, "ELEMENT_SET_NO": 999, "REV_AT_EPOCH": 237, "BSTAR": -0.022242, "MEAN_MOTION_DOT": -0.01940128, "MEAN_MOTION_DDOT": 0}, "tle": {"line1": "1 67030U 25294A   25360.83335647 -.01940128  00000+0 -22242-1 0  9992", "line2": "2 67030  42.9995  96.2065 0001284 277.6753 305.3805 15.64438374  2377"}}, "geometry": {"type": "Point", "coordinates": [38.61814715570118, -37.55688067600976]}}]}